{
  "type": "FeatureCollection",
  "name": "GeoEco Monitor default thesis zones",
  "features": [
    {
      "type": "Feature",
      "properties": {
        "slug": "taganrog_bay",
        "name": "Таганрогский залив",
        "zoneType": "водно-прибрежная зона",
        "boundarySource": "Прямоугольная WGS84 bbox-зона методики дипломной работы",
        "bbox": [38.82, 47.13, 39.16, 47.30]
      },
      "bbox": [38.82, 47.13, 39.16, 47.30],
      "geometry": {
        "type": "Polygon",
        "coordinates": [
          [
            [38.82, 47.13],
            [39.16, 47.13],
            [39.16, 47.30],
            [38.82, 47.30],
            [38.82, 47.13]
          ]
        ]
      }
    },
    {
      "type": "Feature",
      "properties": {
        "slug": "rostov_on_don",
        "name": "Ростов-на-Дону",
        "zoneType": "агломерационная зона",
        "boundarySource": "Прямоугольная WGS84 bbox-зона методики дипломной работы",
        "bbox": [39.58, 47.11, 39.82, 47.36]
      },
      "bbox": [39.58, 47.11, 39.82, 47.36],
      "geometry": {
        "type": "Polygon",
        "coordinates": [
          [
            [39.58, 47.11],
            [39.82, 47.11],
            [39.82, 47.36],
            [39.58, 47.36],
            [39.58, 47.11]
          ]
        ]
      }
    },
    {
      "type": "Feature",
      "properties": {
        "slug": "shakhty",
        "name": "Шахты и Восточный Донбасс",
        "zoneType": "промышленно-урбанизированная зона",
        "boundarySource": "Прямоугольная WGS84 bbox-зона методики дипломной работы",
        "bbox": [40.08, 47.60, 40.35, 47.82]
      },
      "bbox": [40.08, 47.60, 40.35, 47.82],
      "geometry": {
        "type": "Polygon",
        "coordinates": [
          [
            [40.08, 47.60],
            [40.35, 47.60],
            [40.35, 47.82],
            [40.08, 47.82],
            [40.08, 47.60]
          ]
        ]
      }
    }
  ]
}
